{
  "type": "FeatureCollection",
  "features": [
    {
      "type": "Feature",
      "properties": {
        "norad_id": 66457,
        "name": "STARLINK-35466",
        "group": "last-30-days",
        "lat": -40.42803970706864,
        "lon": 17.666956750073396,
        "alt_km": 446.625046012683,
        "timestamp": "2025-12-10T14:53:35.945731+00:00",
        "meta_object_name": "STARLINK-35466",
        "meta_object_id": "2025-262B",
        "meta_epoch": "2025-12-10T06:00:02.000160",
        "meta_mean_motion": 15.40607894,
        "meta_eccentricity": 9.766e-05,
        "meta_inclination": 43.0001,
        "meta_ra_of_asc_node": 85.896,
        "meta_arg_of_pericenter": 288.4008,
        "meta_mean_anomaly": 102.0483,
        "meta_ephemeris_type": 0,
        "meta_classification_type": "U",
        "meta_norad_cat_id": 66457,
        "meta_element_set_no": 999,
        "meta_rev_at_epoch": 523,
        "meta_bstar": 0.0032222973,
        "meta_mean_motion_dot": 0.00136313,
        "meta_mean_motion_ddot": 0,
        "tle_line1": "1 66457U 25262B   25344.25002315  .00136313  00000+0  32223-2 0  9991",
        "tle_line2": "2 66457  43.0001  85.8960 0000976 288.4008 102.0483 15.40607894  5238"
      },
      "geometry": {
        "type": "Point",
        "coordinates": [
          17.666956750073396,
          -40.42803970706864
        ]
      }
    },
    {
      "type": "Feature",
      "properties": {
        "norad_id": 66458,
        "name": "STARLINK-35684",
        "group": "last-30-days",
        "lat": -42.7385527553912,
        "lon": 1.2227924337743739,
        "alt_km": 446.63396941035535,
        "timestamp": "2025-12-10T14:53:35.945743+00:00",
        "meta_object_name": "STARLINK-35684",
        "meta_object_id": "2025-262C",
        "meta_epoch": "2025-12-10T06:00:02.000160",
        "meta_mean_motion": 15.40561239,
        "meta_eccentricity": 0.0001337,
        "meta_inclination": 42.9999,
        "meta_ra_of_asc_node": 85.9252,
        "meta_arg_of_pericenter": 283.6946,
        "meta_mean_anomaly": 94.2854,
        "meta_ephemeris_type": 0,
        "meta_classification_type": "U",
        "meta_norad_cat_id": 66458,
        "meta_element_set_no": 999,
        "meta_rev_at_epoch": 523,
        "meta_bstar": 0.0031655484,
        "meta_mean_motion_dot": 0.00133653,
        "meta_mean_motion_ddot": 0,
        "tle_line1": "1 66458U 25262C   25344.25002315  .00133653  00000+0  31655-2 0  9994",
        "tle_line2": "2 66458  42.9999  85.9252 0001337 283.6946  94.2854 15.40561239  5234"
      },
      "geometry": {
        "type": "Point",
        "coordinates": [
          1.2227924337743739,
          -42.7385527553912
        ]
      }
    },
    {
      "type": "Feature",
      "properties": {
        "norad_id": 66459,
        "name": "STARLINK-35449",
        "group": "last-30-days",
        "lat": -36.017775853777714,
        "lon": 32.451468479489925,
        "alt_km": 446.4718478217901,
        "timestamp": "2025-12-10T14:53:35.945752+00:00",
        "meta_object_name": "STARLINK-35449",
        "meta_object_id": "2025-262D",
        "meta_epoch": "2025-12-10T06:00:02.000160",
        "meta_mean_motion": 15.4060324,
        "meta_eccentricity": 0.00012189,
        "meta_inclination": 43,
        "meta_ra_of_asc_node": 85.8644,
        "meta_arg_of_pericenter": 254.7398,
        "meta_mean_anomaly": 148.1485,
        "meta_ephemeris_type": 0,
        "meta_classification_type": "U",
        "meta_norad_cat_id": 66459,
        "meta_element_set_no": 999,
        "meta_rev_at_epoch": 523,
        "meta_bstar": 0.0033611716,
        "meta_mean_motion_dot": 0.00142291,
        "meta_mean_motion_ddot": 0,
        "tle_line1": "1 66459U 25262D   25344.25002315  .00142291  00000+0  33612-2 0  9998",
        "tle_line2": "2 66459  43.0000  85.8644 0001218 254.7398 148.1485 15.40603240  5230"
      },
      "geometry": {
        "type": "Point",
        "coordinates": [
          32.451468479489925,
          -36.017775853777714
        ]
      }
    },
    {
      "type": "Feature",
      "properties": {
        "norad_id": 66460,
        "name": "STARLINK-35424",
        "group": "last-30-days",
        "lat": -30.004713316365162,
        "lon": 45.40559641238644,
        "alt_km": 445.99511443312804,
        "timestamp": "2025-12-10T14:53:35.945761+00:00",
        "meta_object_name": "STARLINK-35424",
        "meta_object_id": "2025-262E",
        "meta_epoch": "2025-12-10T06:00:02.000160",
        "meta_mean_motion": 15.40619049,
        "meta_eccentricity": 0.00015163,
        "meta_inclination": 43.0003,
        "meta_ra_of_asc_node": 85.8342,
        "meta_arg_of_pericenter": 263.1249,
        "meta_mean_anomaly": 152.18,
        "meta_ephemeris_type": 0,
        "meta_classification_type": "U",
        "meta_norad_cat_id": 66460,
        "meta_element_set_no": 999,
        "meta_rev_at_epoch": 523,
        "meta_bstar": 0.0031943626,
        "meta_mean_motion_dot": 0.00135158,
        "meta_mean_motion_ddot": 0,
        "tle_line1": "1 66460U 25262E   25344.25002315  .00135158  00000+0  31944-2 0  9990",
        "tle_line2": "2 66460  43.0003  85.8342 0001516 263.1249 152.1800 15.40619049  5230"
      },
      "geometry": {
        "type": "Point",
        "coordinates": [
          45.40559641238644,
          -30.004713316365162
        ]
      }
    },
    {
      "type": "Feature",
      "properties": {
        "norad_id": 66461,
        "name": "STARLINK-35132",
        "group": "last-30-days",
        "lat": -22.88399994718035,
        "lon": 56.73535674898457,
        "alt_km": 445.2040476852135,
        "timestamp": "2025-12-10T14:53:35.945772+00:00",
        "meta_object_name": "STARLINK-35132",
        "meta_object_id": "2025-262F",
        "meta_epoch": "2025-12-10T06:00:02.000160",
        "meta_mean_motion": 15.4070234,
        "meta_eccentricity": 0.0001944,
        "meta_inclination": 43.0003,
        "meta_ra_of_asc_node": 85.8042,
        "meta_arg_of_pericenter": 282.5861,
        "meta_mean_anomaly": 145.0842,
        "meta_ephemeris_type": 0,
        "meta_classification_type": "U",
        "meta_norad_cat_id": 66461,
        "meta_element_set_no": 999,
        "meta_rev_at_epoch": 523,
        "meta_bstar": 0.00015610682,
        "meta_mean_motion_dot": 6.223e-05,
        "meta_mean_motion_ddot": 0,
        "tle_line1": "1 66461U 25262F   25344.25002315  .00006223  00000+0  15611-3 0  9995",
        "tle_line2": "2 66461  43.0003  85.8042 0001944 282.5861 145.0842 15.40702340  5232"
      },
      "geometry": {
        "type": "Point",
        "coordinates": [
          56.73535674898457,
          -22.88399994718035
        ]
      }
    },
    {
      "type": "Feature",
      "properties": {
        "norad_id": 66462,
        "name": "STARLINK-35499",
        "group": "last-30-days",
        "lat": -15.00848604582189,
        "lon": 66.91614488310496,
        "alt_km": 445.27358156780156,
        "timestamp": "2025-12-10T14:53:35.945781+00:00",
        "meta_object_name": "STARLINK-35499",
        "meta_object_id": "2025-262G",
        "meta_epoch": "2025-12-10T06:00:02.000160",
        "meta_mean_motion": 15.40626104,
        "meta_eccentricity": 0.00015027,
        "meta_inclination": 43.0002,
        "meta_ra_of_asc_node": 85.7728,
        "meta_arg_of_pericenter": 261.6413,
        "meta_mean_anomaly": 178.5511,
        "meta_ephemeris_type": 0,
        "meta_classification_type": "U",
        "meta_norad_cat_id": 66462,
        "meta_element_set_no": 999,
        "meta_rev_at_epoch": 523,
        "meta_bstar": 0.0020742724,
        "meta_mean_motion_dot": 0.00087125,
        "meta_mean_motion_ddot": 0,
        "tle_line1": "1 66462U 25262G   25344.25002315  .00087125  00000+0  20743-2 0  9997",
        "tle_line2": "2 66462  43.0002  85.7728 0001502 261.6413 178.5511 15.40626104  5230"
      },
      "geometry": {
        "type": "Point",
        "coordinates": [
          66.91614488310496,
          -15.00848604582189
        ]
      }
    },
    {
      "type": "Feature",
      "properties": {
        "norad_id": 66463,
        "name": "STARLINK-35463",
        "group": "last-30-days",
        "lat": 1.7885256070235929,
        "lon": 85.49755821853978,
        "alt_km": 443.2975601109756,
        "timestamp": "2025-12-10T14:53:35.945790+00:00",
        "meta_object_name": "STARLINK-35463",
        "meta_object_id": "2025-262H",
        "meta_epoch": "2025-12-10T06:00:02.000160",
        "meta_mean_motion": 15.42765844,
        "meta_eccentricity": 0.00014216,
        "meta_inclination": 43.0005,
        "meta_ra_of_asc_node": 85.7163,
        "meta_arg_of_pericenter": 286.8416,
        "meta_mean_anomaly": 176.8464,
        "meta_ephemeris_type": 0,
        "meta_classification_type": "U",
        "meta_norad_cat_id": 66463,
        "meta_element_set_no": 999,
        "meta_rev_at_epoch": 523,
        "meta_bstar": -0.063146287,
        "meta_mean_motion_dot": -0.02499487,
        "meta_mean_motion_ddot": 0,
        "tle_line1": "1 66463U 25262H   25344.25002315 -.02499487  00000+0 -63146-1 0  9993",
        "tle_line2": "2 66463  43.0005  85.7163 0001421 286.8416 176.8464 15.42765844  5234"
      },
      "geometry": {
        "type": "Point",
        "coordinates": [
          85.49755821853978,
          1.7885256070235929
        ]
      }
    }
  ]
}